ONEWEB-0674             
1 55833U 23029AP  26023.32844077  .00000160  00000+0  39582-3 0  9994
2 55833  87.9024 318.6030 0001955  64.8124 295.3208 13.14503660140386
ONEWEB-0675             
1 55834U 23029AQ  26023.54880121  .00000056  00000+0  10808-3 0  9993
2 55834  87.9231 333.7686 0001800  88.7173 271.4166 13.19727835139844
ONEWEB-0720             
1 55835U 23029AR  26023.61671586 -.00000019  00000+0 -80609-4 0  9993
2 55835  87.9232 333.7539 0001446  74.4489 285.6803 13.19725957139771
ONEWEB-0537             
1 56046U 23043A   26023.57237826  .00000042  00000+0  75026-4 0  9995
2 56046  87.9019 257.5632 0001626  87.5285 272.6032 13.16596506139936
ONEWEB-0538             
1 56047U 23043B   26023.56604315  .00000059  00000+0  12182-3 0  9997
2 56047  87.9017 257.5681 0001316  91.8151 268.3130 13.16595456139940
ONEWEB-0546             
1 56048U 23043C   26023.62937435  .00000086  00000+0  19047-3 0  9994
2 56048  87.9019 257.5507 0002005  96.3285 263.8074 13.16595441139945
ONEWEB-0547             
1 56049U 23043D   26023.66875651 -.00000042  00000+0 -13329-3 0  9991
2 56049  87.9212 272.8023 0001423  78.4430 281.6863 13.21824566139134
ONEWEB-0548             
1 56050U 23043E   26023.57792164  .00000082  00000+0  18128-3 0  9994
2 56050  87.9017 257.5625 0001748  66.4929 293.6386 13.16593558139936
